[{"OBJECT_NAME":"ONEWEB-0411","OBJECT_ID":"2022-012B","EPOCH":"2026-05-21T05:04:34.157280","MEAN_MOTION":13.10373309,"ECCENTRICITY":0.0001304,"INCLINATION":87.8861,"RA_OF_ASC_NODE":41.6342,"ARG_OF_PERICENTER":77.7902,"MEAN_ANOMALY":282.3372,"EPHEMERIS_TYPE":0,"CLASSIFICATION_TYPE":"U","NORAD_CAT_ID":51623,"ELEMENT_SET_NO":999,"REV_AT_EPOCH":20575,"BSTAR":-0.0018905,"MEAN_MOTION_DOT":-6.47e-06,"MEAN_MOTION_DDOT":0.0},{"OBJECT_NAME":"ONEWEB-0415","OBJECT_ID":"2022-012C","EPOCH":"2026-05-21T04:59:47.687712","MEAN_MOTION":13.10372253,"ECCENTRICITY":0.0001594,"INCLINATION":87.8853,"RA_OF_ASC_NODE":41.635,"ARG_OF_PERICENTER":82.2435,"MEAN_ANOMALY":277.8873,"EPHEMERIS_TYPE":0,"CLASSIFICATION_TYPE":"U","NORAD_CAT_ID":51624,"ELEMENT_SET_NO":999,"REV_AT_EPOCH":20575,"BSTAR":-0.0018160000000000001,"MEAN_MOTION_DOT":-6.21e-06,"MEAN_MOTION_DDOT":0.0},{"OBJECT_NAME":"ONEWEB-0416","OBJECT_ID":"2022-012D","EPOCH":"2026-05-21T05:16:31.173600","MEAN_MOTION":13.10375947,"ECCENTRICITY":0.0001606,"INCLINATION":87.8854,"RA_OF_ASC_NODE":41.652,"ARG_OF_PERICENTER":91.4776,"MEAN_ANOMALY":268.6535,"EPHEMERIS_TYPE":0,"CLASSIFICATION_TYPE":"U","NORAD_CAT_ID":51625,"ELEMENT_SET_NO":999,"REV_AT_EPOCH":20579,"BSTAR":-0.0013729,"MEAN_MOTION_DOT":-4.67e-06,"MEAN_MOTION_DDOT":0.0},{"OBJECT_NAME":"ONEWEB-0422","OBJECT_ID":"2022-012E","EPOCH":"2026-05-21T04:39:32.946048","MEAN_MOTION":13.17649461,"ECCENTRICITY":0.0001812,"INCLINATION":87.9165,"RA_OF_ASC_NODE":11.2237,"ARG_OF_PERICENTER":63.2147,"MEAN_ANOMALY":296.917,"EPHEMERIS_TYPE":0,"CLASSIFICATION_TYPE":"U","NORAD_CAT_ID":51626,"ELEMENT_SET_NO":999,"REV_AT_EPOCH":21025,"BSTAR":0.00012174000000000001,"MEAN_MOTION_DOT":6e-07,"MEAN_MOTION_DDOT":0.0},{"OBJECT_NAME":"ONEWEB-0423","OBJECT_ID":"2022-012F","EPOCH":"2026-05-21T04:29:49.826400","MEAN_MOTION":13.17648926,"ECCENTRICITY":0.0001934,"INCLINATION":87.916,"RA_OF_ASC_NODE":11.2321,"ARG_OF_PERICENTER":84.3217,"MEAN_ANOMALY":275.8135,"EPHEMERIS_TYPE":0,"CLASSIFICATION_TYPE":"U","NORAD_CAT_ID":51627,"ELEMENT_SET_NO":999,"REV_AT_EPOCH":21014,"BSTAR":0.0001476,"MEAN_MOTION_DOT":7e-07,"MEAN_MOTION_DDOT":0.0},{"OBJECT_NAME":"ONEWEB-0425","OBJECT_ID":"2022-012G","EPOCH":"2026-05-21T05:30:54.062496","MEAN_MOTION":13.10376596,"ECCENTRICITY":0.0002154,"INCLINATION":87.8855,"RA_OF_ASC_NODE":41.6327,"ARG_OF_PERICENTER":84.4075,"MEAN_ANOMALY":275.7298,"EPHEMERIS_TYPE":0,"CLASSIFICATION_TYPE":"U","NORAD_CAT_ID":51628,"ELEMENT_SET_NO":999,"REV_AT_EPOCH":20579,"BSTAR":-0.00015268,"MEAN_MOTION_DOT":-4.1e-07,"MEAN_MOTION_DDOT":0.0},{"OBJECT_NAME":"ONEWEB-0428","OBJECT_ID":"2022-012H","EPOCH":"2026-05-21T05:02:10.916448","MEAN_MOTION":13.1037273,"ECCENTRICITY":0.0001893,"INCLINATION":87.8853,"RA_OF_ASC_NODE":41.6442,"ARG_OF_PERICENTER":78.2187,"MEAN_ANOMALY":281.9153,"EPHEMERIS_TYPE":0,"CLASSIFICATION_TYPE":"U","NORAD_CAT_ID":51629,"ELEMENT_SET_NO":999,"REV_AT_EPOCH":20575,"BSTAR":-0.0018313,"MEAN_MOTION_DOT":-6.27e-06,"MEAN_MOTION_DDOT":0.0},{"OBJECT_NAME":"ONEWEB-0431","OBJECT_ID":"2022-012J","EPOCH":"2026-05-21T06:08:56.271840","MEAN_MOTION":13.10372205,"ECCENTRICITY":0.0001286,"INCLINATION":87.8853,"RA_OF_ASC_NODE":41.6269,"ARG_OF_PERICENTER":71.8998,"MEAN_ANOMALY":288.2269,"EPHEMERIS_TYPE":0,"CLASSIFICATION_TYPE":"U","NORAD_CAT_ID":51630,"ELEMENT_SET_NO":999,"REV_AT_EPOCH":20581,"BSTAR":0.0016275,"MEAN_MOTION_DOT":5.81e-06,"MEAN_MOTION_DDOT":0.0},{"OBJECT_NAME":"ONEWEB-0434","OBJECT_ID":"2022-012K","EPOCH":"2026-05-21T05:35:52.228032","MEAN_MOTION":13.10376587,"ECCENTRICITY":0.0002468,"INCLINATION":87.8859,"RA_OF_ASC_NODE":41.6557,"ARG_OF_PERICENTER":86.8251,"MEAN_ANOMALY":273.3159,"EPHEMERIS_TYPE":0,"CLASSIFICATION_TYPE":"U","NORAD_CAT_ID":51631,"ELEMENT_SET_NO":999,"REV_AT_EPOCH":20579,"BSTAR":0.00033421000000000004,"MEAN_MOTION_DOT":1.29e-06,"MEAN_MOTION_DDOT":0.0},{"OBJECT_NAME":"ONEWEB-0435","OBJECT_ID":"2022-012L","EPOCH":"2026-05-21T05:47:37.549248","MEAN_MOTION":13.10375338,"ECCENTRICITY":0.000184,"INCLINATION":87.8853,"RA_OF_ASC_NODE":41.6422,"ARG_OF_PERICENTER":72.3539,"MEAN_ANOMALY":287.7789,"EPHEMERIS_TYPE":0,"CLASSIFICATION_TYPE":"U","NORAD_CAT_ID":51632,"ELEMENT_SET_NO":999,"REV_AT_EPOCH":20578,"BSTAR":0.0012920000000000002,"MEAN_MOTION_DOT":4.64e-06,"MEAN_MOTION_DDOT":0.0},{"OBJECT_NAME":"ONEWEB-0436","OBJECT_ID":"2022-012M","EPOCH":"2026-05-21T04:17:40.411680","MEAN_MOTION":13.17649577,"ECCENTRICITY":0.0001733,"INCLINATION":87.9165,"RA_OF_ASC_NODE":11.2143,"ARG_OF_PERICENTER":77.4477,"MEAN_ANOMALY":282.6848,"EPHEMERIS_TYPE":0,"CLASSIFICATION_TYPE":"U","NORAD_CAT_ID":51633,"ELEMENT_SET_NO":999,"REV_AT_EPOCH":21012,"BSTAR":9.967500000000001e-05,"MEAN_MOTION_DOT":5.2e-07,"MEAN_MOTION_DDOT":0.0},{"OBJECT_NAME":"ONEWEB-0438","OBJECT_ID":"2022-012N","EPOCH":"2026-05-21T05:23:42.370944","MEAN_MOTION":13.10375916,"ECCENTRICITY":0.0001995,"INCLINATION":87.8857,"RA_OF_ASC_NODE":41.6478,"ARG_OF_PERICENTER":82.839,"MEAN_ANOMALY":277.2964,"EPHEMERIS_TYPE":0,"CLASSIFICATION_TYPE":"U","NORAD_CAT_ID":51634,"ELEMENT_SET_NO":999,"REV_AT_EPOCH":20581,"BSTAR":-0.00064565,"MEAN_MOTION_DOT":-2.13e-06,"MEAN_MOTION_DDOT":0.0},{"OBJECT_NAME":"ONEWEB-0439","OBJECT_ID":"2022-012P","EPOCH":"2026-05-21T05:28:29.389152","MEAN_MOTION":13.10375842,"ECCENTRICITY":0.0001972,"INCLINATION":87.8856,"RA_OF_ASC_NODE":41.6349,"ARG_OF_PERICENTER":77.5343,"MEAN_ANOMALY":282.6005,"EPHEMERIS_TYPE":0,"CLASSIFICATION_TYPE":"U","NORAD_CAT_ID":51635,"ELEMENT_SET_NO":999,"REV_AT_EPOCH":20579,"BSTAR":-0.00015465999999999999,"MEAN_MOTION_DOT":-4.1e-07,"MEAN_MOTION_DDOT":0.0},{"OBJECT_NAME":"ONEWEB-0442","OBJECT_ID":"2022-012Q","EPOCH":"2026-05-21T04:06:43.600608","MEAN_MOTION":13.17651022,"ECCENTRICITY":0.0002288,"INCLINATION":87.9157,"RA_OF_ASC_NODE":11.2503,"ARG_OF_PERICENTER":95.5078,"MEAN_ANOMALY":264.6315,"EPHEMERIS_TYPE":0,"CLASSIFICATION_TYPE":"U","NORAD_CAT_ID":51636,"ELEMENT_SET_NO":999,"REV_AT_EPOCH":21011,"BSTAR":0.00017286000000000002,"MEAN_MOTION_DOT":8e-07,"MEAN_MOTION_DDOT":0.0},{"OBJECT_NAME":"ONEWEB-0443","OBJECT_ID":"2022-012R","EPOCH":"2026-05-21T02:45:19.530432","MEAN_MOTION":13.17651324,"ECCENTRICITY":0.0002136,"INCLINATION":87.9159,"RA_OF_ASC_NODE":11.2629,"ARG_OF_PERICENTER":78.4591,"MEAN_ANOMALY":281.678,"EPHEMERIS_TYPE":0,"CLASSIFICATION_TYPE":"U","NORAD_CAT_ID":51637,"ELEMENT_SET_NO":999,"REV_AT_EPOCH":21015,"BSTAR":8.9368e-05,"MEAN_MOTION_DOT":4.8e-07,"MEAN_MOTION_DDOT":0.0},{"OBJECT_NAME":"ONEWEB-0444","OBJECT_ID":"2022-012S","EPOCH":"2026-05-21T05:14:08.172960","MEAN_MOTION":13.10374826,"ECCENTRICITY":0.0002017,"INCLINATION":87.8855,"RA_OF_ASC_NODE":41.6354,"ARG_OF_PERICENTER":77.113,"MEAN_ANOMALY":283.0223,"EPHEMERIS_TYPE":0,"CLASSIFICATION_TYPE":"U","NORAD_CAT_ID":51638,"ELEMENT_SET_NO":999,"REV_AT_EPOCH":20580,"BSTAR":-0.0015718,"MEAN_MOTION_DOT":-5.36e-06,"MEAN_MOTION_DDOT":0.0},{"OBJECT_NAME":"ONEWEB-0445","OBJECT_ID":"2022-012T","EPOCH":"2026-05-21T05:45:13.814208","MEAN_MOTION":13.10375574,"ECCENTRICITY":0.0001685,"INCLINATION":87.8864,"RA_OF_ASC_NODE":41.6171,"ARG_OF_PERICENTER":83.1251,"MEAN_ANOMALY":277.0068,"EPHEMERIS_TYPE":0,"CLASSIFICATION_TYPE":"U","NORAD_CAT_ID":51639,"ELEMENT_SET_NO":999,"REV_AT_EPOCH":20581,"BSTAR":0.0014408000000000001,"MEAN_MOTION_DOT":5.16e-06,"MEAN_MOTION_DDOT":0.0},{"OBJECT_NAME":"ONEWEB-0446","OBJECT_ID":"2022-012U","EPOCH":"2026-05-21T05:11:44.790432","MEAN_MOTION":13.10374682,"ECCENTRICITY":0.0001748,"INCLINATION":87.8853,"RA_OF_ASC_NODE":41.6526,"ARG_OF_PERICENTER":82.8166,"MEAN_ANOMALY":277.316,"EPHEMERIS_TYPE":0,"CLASSIFICATION_TYPE":"U","NORAD_CAT_ID":51640,"ELEMENT_SET_NO":999,"REV_AT_EPOCH":20579,"BSTAR":-0.0016393,"MEAN_MOTION_DOT":-5.6e-06,"MEAN_MOTION_DDOT":0.0},{"OBJECT_NAME":"ONEWEB-0448","OBJECT_ID":"2022-012V","EPOCH":"2026-05-21T05:18:54.716832","MEAN_MOTION":13.10374675,"ECCENTRICITY":0.000194,"INCLINATION":87.8856,"RA_OF_ASC_NODE":41.6486,"ARG_OF_PERICENTER":77.0951,"MEAN_ANOMALY":283.0393,"EPHEMERIS_TYPE":0,"CLASSIFICATION_TYPE":"U","NORAD_CAT_ID":51641,"ELEMENT_SET_NO":999,"REV_AT_EPOCH":20576,"BSTAR":-0.0013488,"MEAN_MOTION_DOT":-4.58e-06,"MEAN_MOTION_DDOT":0.0},{"OBJECT_NAME":"ONEWEB-0449","OBJECT_ID":"2022-012W","EPOCH":"2026-05-21T05:26:05.997120","MEAN_MOTION":13.10375972,"ECCENTRICITY":0.0002268,"INCLINATION":87.8859,"RA_OF_ASC_NODE":41.6322,"ARG_OF_PERICENTER":84.9115,"MEAN_ANOMALY":275.2271,"EPHEMERIS_TYPE":0,"CLASSIFICATION_TYPE":"U","NORAD_CAT_ID":51642,"ELEMENT_SET_NO":999,"REV_AT_EPOCH":20577,"BSTAR":-0.00041568,"MEAN_MOTION_DOT":-1.32e-06,"MEAN_MOTION_DDOT":0.0},{"OBJECT_NAME":"ONEWEB-0451","OBJECT_ID":"2022-012X","EPOCH":"2026-05-21T04:12:49.391424","MEAN_MOTION":13.17648718,"ECCENTRICITY":0.0002056,"INCLINATION":87.9167,"RA_OF_ASC_NODE":11.2118,"ARG_OF_PERICENTER":86.653,"MEAN_ANOMALY":273.4836,"EPHEMERIS_TYPE":0,"CLASSIFICATION_TYPE":"U","NORAD_CAT_ID":51643,"ELEMENT_SET_NO":999,"REV_AT_EPOCH":21010,"BSTAR":0.00010619000000000001,"MEAN_MOTION_DOT":5.4e-07,"MEAN_MOTION_DDOT":0.0},{"OBJECT_NAME":"ONEWEB-0452","OBJECT_ID":"2022-012Y","EPOCH":"2026-05-21T04:10:23.220768","MEAN_MOTION":13.17649418,"ECCENTRICITY":0.0002151,"INCLINATION":87.9157,"RA_OF_ASC_NODE":11.2515,"ARG_OF_PERICENTER":81.7281,"MEAN_ANOMALY":278.4095,"EPHEMERIS_TYPE":0,"CLASSIFICATION_TYPE":"U","NORAD_CAT_ID":51644,"ELEMENT_SET_NO":999,"REV_AT_EPOCH":21011,"BSTAR":0.00015882,"MEAN_MOTION_DOT":7.5e-07,"MEAN_MOTION_DDOT":0.0},{"OBJECT_NAME":"ONEWEB-0456","OBJECT_ID":"2022-012AA","EPOCH":"2026-05-21T05:40:29.981568","MEAN_MOTION":13.10380932,"ECCENTRICITY":0.0001858,"INCLINATION":87.8867,"RA_OF_ASC_NODE":41.615,"ARG_OF_PERICENTER":73.3499,"MEAN_ANOMALY":286.7832,"EPHEMERIS_TYPE":0,"CLASSIFICATION_TYPE":"U","NORAD_CAT_ID":51646,"ELEMENT_SET_NO":999,"REV_AT_EPOCH":20581,"BSTAR":0.0012484,"MEAN_MOTION_DOT":4.49e-06,"MEAN_MOTION_DDOT":0.0}]